NORAD_CAT_ID,OBJECT_NAME,OBJECT_TYPE,EPOCH,MEAN_MOTION,ECCENTRICITY,INCLINATION,RA_OF_ASC_NODE,ARG_OF_PERICENTER,MEAN_ANOMALY,BSTAR,MEAN_MOTION_DOT,MEAN_MOTION_DDOT,TLE_LINE0,TLE_LINE1,TLE_LINE2,SEMIMAJOR_AXIS,PERIOD,APOGEE,PERIGEE,DECAYED
55775.0,STARLINK-5809,PAYLOAD,2024-08-19 05:19:50,14.98332525,0.0002776,69.9994,215.174,265.0248,95.0594,-0.00013424,-1.694e-05,0.0,0 STARLINK-5809,1 55775U 23028AL  24232.22210846 -.00001694  00000-0 -13424-3 0  9991,2 55775  69.9994 215.1740 0002776 265.0248  95.0594 14.98332525 81537,6950.185,96.107,573.979,570.121,0.0
55775.0,STARLINK-5809,PAYLOAD,2024-08-19 08:32:06,14.98331828,0.0002752,69.9995,214.8378,264.2805,95.804,-0.0001354,-1.708e-05,0.0,0 STARLINK-5809,1 55775U 23028AL  24232.35562868 -.00001708  00000-0 -13540-3 0  9994,2 55775  69.9995 214.8378 0002752 264.2805  95.8040 14.98331828 81556,6950.187,96.107,573.965,570.14,0.0
55775.0,STARLINK-5809,PAYLOAD,2024-08-20 05:21:50,14.98333541,0.0002943,69.9992,212.6498,267.7437,92.3385,-1.8565e-05,-3.15e-06,0.0,0 STARLINK-5809,1 55775U 23028AL  24233.22350234 -.00000315  00000-0 -18565-4 0  9999,2 55775  69.9992 212.6498 0002943 267.7437  92.3385 14.98333541 81685,6950.182,96.107,574.092,570.002,0.0
55775.0,STARLINK-5809,PAYLOAD,2024-08-20 08:34:06,14.98333336,0.0002967,69.9992,212.3131,268.1133,91.9686,-2.0864e-05,-3.42e-06,0.0,0 STARLINK-5809,1 55775U 23028AL  24233.35702230 -.00000342  00000-0 -20864-4 0  9995,2 55775  69.9992 212.3131 0002967 268.1133  91.9686 14.98333336 81704,6950.183,96.107,574.11,569.985,0.0
55775.0,STARLINK-5809,PAYLOAD,2024-08-21 08:36:07,14.98330332,0.0003048,69.999,209.7883,268.8252,91.2558,6.1559e-05,6.42e-06,0.0,0 STARLINK-5809,1 55775U 23028AL  24234.35842128  .00000642  00000-0  61559-4 0  9994,2 55775  69.9990 209.7883 0003048 268.8252  91.2558 14.98330332 81856,6950.192,96.107,574.175,569.938,0.0
55775.0,STARLINK-5809,PAYLOAD,2024-08-21 21:25:12,14.98330711,0.0002996,69.9991,208.4423,268.1923,91.8893,1.5343e-06,-7.5e-07,0.0,0 STARLINK-5809,1 55775U 23028AL  24234.89250262 -.00000075  00000-0  15343-5 0  9997,2 55775  69.9991 208.4423 0002996 268.1923  91.8893 14.98330711 81930,6950.191,96.107,574.138,569.973,0.0
